     2.10           G: GLONASS NAV DATA                     RINEX VERSION / TYPE
teqc  2011Oct11     IGN-E (SPG)         20150127 04:00:51UTCPGM / RUN BY / DATE
Linux 2.4.21-27.ELsmp|Opteron|gcc -static|Linux x86_64|=+   COMMENT
                                                            END OF HEADER
13 15  1 27  3 15  0.0-4.695048555732D-04-9.094947017729D-13 1.080000000000D+04
   -4.985705566406D+03 2.968810081482D+00-9.313225746155D-10 0.000000000000D+00
   -9.417034179688D+03-1.135113716125D+00-1.862645149231D-09-2.000000000000D+00
    2.316197705078D+04 1.776380538940D-01-1.862645149231D-09 0.000000000000D+00
20 15  1 27  3 15  0.0-1.551713794470D-04-9.094947017729D-13 1.080000000000D+04
    2.222736328125D+03-1.553850173950D-01 9.313225746155D-10 0.000000000000D+00
    2.179144824219D+04 1.795703887939D+00 0.000000000000D+00 2.000000000000D+00
    1.312460302734D+04-2.952436447144D+00-1.862645149231D-09 0.000000000000D+00
21 15  1 27  3 15  0.0-3.940425813198D-06 1.818989403546D-12 1.080000000000D+04
    9.297327636719D+03-4.637613296509D-01 9.313225746155D-10 0.000000000000D+00
    8.008084960938D+03 3.027186393738D+00-0.000000000000D+00 4.000000000000D+00
    2.236241943359D+04-8.940839767456D-01-2.793967723846D-09 1.000000000000D+01
22 15  1 27  3 15  0.0 1.510921865702D-04 0.000000000000D+00 1.080000000000D+04
    1.128997900391D+04-5.403757095337D-01-0.000000000000D+00 0.000000000000D+00
   -1.078534814453D+04 2.709313392639D+00-0.000000000000D+00-3.000000000000D+00
    2.013220800781D+04 1.767328262329D+00-1.862645149231D-09 0.000000000000D+00
23 15  1 27  3 15  0.0-7.061427459121D-04-3.637978807092D-12 1.086000000000D+04
    6.534253417969D+03-3.048152923584D-01-9.313225746155D-10 0.000000000000D+00
   -2.406160205078D+04 6.989107131958D-01-0.000000000000D+00 3.000000000000D+00
    5.394086425781D+03 3.484498023987D+00 0.000000000000D+00 0.000000000000D+00
 6 15  1 27  3 45  0.0 6.151292473078D-05 0.000000000000D+00 1.260000000000D+04
    1.221291552734D+04-1.771572113037D+00 1.862645149231D-09 0.000000000000D+00
    1.612827294922D+04-1.185772895813D+00 0.000000000000D+00-4.000000000000D+00
    1.553516406250D+04 2.617527961731D+00-2.793967723846D-09 0.000000000000D+00
12 15  1 27  3 45  0.0-7.562339305878D-06 0.000000000000D+00 1.260000000000D+04
    1.657427783203D+04 1.372262001038D+00 0.000000000000D+00 0.000000000000D+00
   -1.517325976562D+04-9.115152359009D-01 0.000000000000D+00-1.000000000000D+00
    1.189979638672D+04-3.081224441528D+00-0.000000000000D+00 0.000000000000D+00
 5 15  1 27  3 45  0.0 1.124106347561D-06 0.000000000000D+00 1.260000000000D+04
   -5.521301269531D+03-2.694023132324D+00-0.000000000000D+00 0.000000000000D+00
    9.639381347656D+03-1.622715950012D+00-9.313225746155D-10 1.000000000000D+00
    2.294622656250D+04 3.411960601807D-02-2.793967723846D-09 0.000000000000D+00
 7 15  1 27  3 45  0.0-1.135515049100D-04-0.000000000000D+00 1.260000000000D+04
    2.187485546875D+04 1.359748840332D-01 1.862645149231D-09 0.000000000000D+00
    1.313229443359D+04-1.038379669189D-01 9.313225746155D-10 5.000000000000D+00
   -4.269995117188D+02 3.566056251526D+00-9.313225746155D-10 0.000000000000D+00
11 15  1 27  3 45  0.0-1.415610313416D-07 9.094947017729D-13 1.260000000000D+04
    2.298488330078D+04-8.297586441040D-01 1.862645149231D-09 0.000000000000D+00
   -9.391356933594D+03 2.049942016602D-01 9.313225746155D-10 0.000000000000D+00
   -6.041637695312D+03-3.465796470642D+00 0.000000000000D+00 0.000000000000D+00
13 15  1 27  3 45  0.0-4.695076495409D-04-9.094947017729D-13 1.260000000000D+04
    1.540937500000D+02 2.695873260498D+00-9.313225746155D-10 0.000000000000D+00
   -1.183732714844D+04-1.528499603271D+00-9.313225746155D-10-2.000000000000D+00
    2.258105419922D+04-8.189010620117D-01-1.862645149231D-09 0.000000000000D+00
20 15  1 27  3 45  0.0-1.551741734147D-04-9.094947017729D-13 1.260000000000D+04
    2.243314453125D+03 1.438970565796D-01 9.313225746155D-10 0.000000000000D+00
    2.434633300781D+04 1.015630722046D+00 0.000000000000D+00 2.000000000000D+00
    7.372888671875D+03-3.396986007690D+00-1.862645149231D-09 0.000000000000D+00
21 15  1 27  3 45  0.0-3.937631845474D-06 1.818989403546D-12 1.260000000000D+04
    8.884769042969D+03-5.473136901855D-03 9.313225746155D-10 0.000000000000D+00
    1.323265136719D+04 2.728354454041D+00-0.000000000000D+00 4.000000000000D+00
    1.990932324219D+04-1.813968658447D+00-2.793967723846D-09 1.000000000000D+01
22 15  1 27  3 45  0.0 1.510940492153D-04 9.094947017729D-13 1.260000000000D+04
    1.065712500000D+04-1.428184509277D-01 0.000000000000D+00 0.000000000000D+00
   -5.533432128906D+03 3.078949928284D+00-0.000000000000D+00-3.000000000000D+00
    2.249179394531D+04 8.377323150635D-01-1.862645149231D-09 0.000000000000D+00
23 15  1 27  3 45  0.0-7.061501964927D-04-3.637978807092D-12 1.260000000000D+04
    6.027244628906D+03-2.182102203369D-01-9.313225746155D-10 0.000000000000D+00
   -2.202151855469D+04 1.552587509155D+00-0.000000000000D+00 3.000000000000D+00
    1.137662597656D+04 3.119603157043D+00-0.000000000000D+00 0.000000000000D+00
 8 15  1 27  3 45  0.0-2.620089799166D-05-0.000000000000D+00 1.419000000000D+04
    1.936081298828D+04 1.973677635193D+00 1.862645149231D-09 0.000000000000D+00
    2.700368164062D+03 1.077663421631D+00 1.862645149231D-09 6.000000000000D+00
   -1.633153564453D+04 2.513035774231D+00 9.313225746155D-10 0.000000000000D+00
